{
  "type": "FeatureCollection",
  "features": [
    {
      "type": "Feature",
      "properties": {
        "norad_id": 34464,
        "name": "COSMOS 2251 DEB",
        "group": "cosmos-2251-debris",
        "lat": -25.912679905436033,
        "lon": -107.46214954055836,
        "alt_km": 479.23985450744294,
        "timestamp": "2025-12-19T04:59:48.701224+00:00",
        "meta_object_name": "COSMOS 2251 DEB",
        "meta_object_id": "1993-036TH",
        "meta_epoch": "2025-12-18T15:31:16.660704",
        "meta_mean_motion": 15.27880688,
        "meta_eccentricity": 0.00151141,
        "meta_inclination": 73.9899,
        "meta_ra_of_asc_node": 65.7127,
        "meta_arg_of_pericenter": 246.9934,
        "meta_mean_anomaly": 112.9673,
        "meta_ephemeris_type": 0,
        "meta_classification_type": "U",
        "meta_norad_cat_id": 34464,
        "meta_element_set_no": 999,
        "meta_rev_at_epoch": 89930,
        "meta_bstar": 0.0020725497,
        "meta_mean_motion_dot": 0.00057007,
        "meta_mean_motion_ddot": 0,
        "tle_line1": "1 34464U 93036TH  25352.64672061  .00057007  00000+0  20725-2 0  9997",
        "tle_line2": "2 34464  73.9899  65.7127 0015114 246.9934 112.9673 15.27880688899306"
      },
      "geometry": {
        "type": "Point",
        "coordinates": [
          -107.46214954055836,
          -25.912679905436033
        ]
      }
    },
    {
      "type": "Feature",
      "properties": {
        "norad_id": 34468,
        "name": "COSMOS 2251 DEB",
        "group": "cosmos-2251-debris",
        "lat": 12.43741784059758,
        "lon": 108.7113298610259,
        "alt_km": 764.5996754440803,
        "timestamp": "2025-12-19T04:59:48.701235+00:00",
        "meta_object_name": "COSMOS 2251 DEB",
        "meta_object_id": "1993-036TM",
        "meta_epoch": "2025-12-18T17:19:37.167744",
        "meta_mean_motion": 14.47640265,
        "meta_eccentricity": 0.00763208,
        "meta_inclination": 74.013,
        "meta_ra_of_asc_node": 105.9968,
        "meta_arg_of_pericenter": 249.7073,
        "meta_mean_anomaly": 109.5872,
        "meta_ephemeris_type": 0,
        "meta_classification_type": "U",
        "meta_norad_cat_id": 34468,
        "meta_element_set_no": 999,
        "meta_rev_at_epoch": 88548,
        "meta_bstar": 0.00027124178,
        "meta_mean_motion_dot": 1.007e-05,
        "meta_mean_motion_ddot": 0,
        "tle_line1": "1 34468U 93036TM  25352.72195796  .00001007  00000+0  27124-3 0  9995",
        "tle_line2": "2 34468  74.0130 105.9968 0076320 249.7073 109.5872 14.47640265885484"
      },
      "geometry": {
        "type": "Point",
        "coordinates": [
          108.7113298610259,
          12.43741784059758
        ]
      }
    },
    {
      "type": "Feature",
      "properties": {
        "norad_id": 34472,
        "name": "COSMOS 2251 DEB",
        "group": "cosmos-2251-debris",
        "lat": 35.97318767162754,
        "lon": 99.45891805713872,
        "alt_km": 1237.3420150415432,
        "timestamp": "2025-12-19T04:59:48.701245+00:00",
        "meta_object_name": "COSMOS 2251 DEB",
        "meta_object_id": "1993-036TR",
        "meta_epoch": "2025-12-18T16:32:15.678240",
        "meta_mean_motion": 13.70339087,
        "meta_eccentricity": 0.03278808,
        "meta_inclination": 74.0847,
        "meta_ra_of_asc_node": 88.3603,
        "meta_arg_of_pericenter": 218.0804,
        "meta_mean_anomaly": 139.6734,
        "meta_ephemeris_type": 0,
        "meta_classification_type": "U",
        "meta_norad_cat_id": 34472,
        "meta_element_set_no": 999,
        "meta_rev_at_epoch": 83808,
        "meta_bstar": 0.00051678335,
        "meta_mean_motion_dot": 6.44e-06,
        "meta_mean_motion_ddot": 0,
        "tle_line1": "1 34472U 93036TR  25352.68907035  .00000644  00000+0  51678-3 0  9999",
        "tle_line2": "2 34472  74.0847  88.3603 0327880 218.0804 139.6734 13.70339087838082"
      },
      "geometry": {
        "type": "Point",
        "coordinates": [
          99.45891805713872,
          35.97318767162754
        ]
      }
    },
    {
      "type": "Feature",
      "properties": {
        "norad_id": 34474,
        "name": "COSMOS 2251 DEB",
        "group": "cosmos-2251-debris",
        "lat": -65.0620181112701,
        "lon": -82.98691255577266,
        "alt_km": 894.6906325818345,
        "timestamp": "2025-12-19T04:59:48.701256+00:00",
        "meta_object_name": "COSMOS 2251 DEB",
        "meta_object_id": "1993-036TT",
        "meta_epoch": "2025-12-18T22:45:14.450688",
        "meta_mean_motion": 14.06458379,
        "meta_eccentricity": 0.0198869,
        "meta_inclination": 74.0777,
        "meta_ra_of_asc_node": 315.3391,
        "meta_arg_of_pericenter": 27.6248,
        "meta_mean_anomaly": 27.5907,
        "meta_ephemeris_type": 0,
        "meta_classification_type": "U",
        "meta_norad_cat_id": 34474,
        "meta_element_set_no": 999,
        "meta_rev_at_epoch": 85596,
        "meta_bstar": 0.0018742434,
        "meta_mean_motion_dot": 3.684e-05,
        "meta_mean_motion_ddot": 0,
        "tle_line1": "1 34474U 93036TT  25352.94808392  .00003684  00000+0  18742-2 0  9997",
        "tle_line2": "2 34474  74.0777 315.3391 0198869  27.6248  27.5907 14.06458379855961"
      },
      "geometry": {
        "type": "Point",
        "coordinates": [
          -82.98691255577266,
          -65.0620181112701
        ]
      }
    },
    {
      "type": "Feature",
      "properties": {
        "norad_id": 34476,
        "name": "COSMOS 2251 DEB",
        "group": "cosmos-2251-debris",
        "lat": 55.66561226058906,
        "lon": 96.42830058311465,
        "alt_km": 1095.737029186561,
        "timestamp": "2025-12-19T04:59:48.701267+00:00",
        "meta_object_name": "COSMOS 2251 DEB",
        "meta_object_id": "1993-036TV",
        "meta_epoch": "2025-12-17T05:48:19.955232",
        "meta_mean_motion": 13.82074006,
        "meta_eccentricity": 0.03207827,
        "meta_inclination": 74.0083,
        "meta_ra_of_asc_node": 74.9164,
        "meta_arg_of_pericenter": 293.5391,
        "meta_mean_anomaly": 63.2336,
        "meta_ephemeris_type": 0,
        "meta_classification_type": "U",
        "meta_norad_cat_id": 34476,
        "meta_element_set_no": 999,
        "meta_rev_at_epoch": 83700,
        "meta_bstar": 0.0027724319,
        "meta_mean_motion_dot": 4.394e-05,
        "meta_mean_motion_ddot": 0,
        "tle_line1": "1 34476U 93036TV  25351.24189763  .00004394  00000+0  27724-2 0  9994",
        "tle_line2": "2 34476  74.0083  74.9164 0320782 293.5391  63.2336 13.82074006837005"
      },
      "geometry": {
        "type": "Point",
        "coordinates": [
          96.42830058311465,
          55.66561226058906
        ]
      }
    },
    {
      "type": "Feature",
      "properties": {
        "norad_id": 34477,
        "name": "COSMOS 2251 DEB",
        "group": "cosmos-2251-debris",
        "lat": -65.91978088332982,
        "lon": -82.81446960810352,
        "alt_km": 656.2406373729282,
        "timestamp": "2025-12-19T04:59:48.701277+00:00",
        "meta_object_name": "COSMOS 2251 DEB",
        "meta_object_id": "1993-036TW",
        "meta_epoch": "2025-12-18T15:21:40.262112",
        "meta_mean_motion": 14.56903552,
        "meta_eccentricity": 0.00768488,
        "meta_inclination": 73.9793,
        "meta_ra_of_asc_node": 58.2578,
        "meta_arg_of_pericenter": 244.3262,
        "meta_mean_anomaly": 268.6252,
        "meta_ephemeris_type": 0,
        "meta_classification_type": "U",
        "meta_norad_cat_id": 34477,
        "meta_element_set_no": 999,
        "meta_rev_at_epoch": 88711,
        "meta_bstar": 0.00056833755,
        "meta_mean_motion_dot": 2.623e-05,
        "meta_mean_motion_ddot": 0,
        "tle_line1": "1 34477U 93036TW  25352.64004933  .00002623  00000+0  56834-3 0  9993",
        "tle_line2": "2 34477  73.9793  58.2578 0076848 244.3262 268.6252 14.56903552887112"
      },
      "geometry": {
        "type": "Point",
        "coordinates": [
          -82.81446960810352,
          -65.91978088332982
        ]
      }
    },
    {
      "type": "Feature",
      "properties": {
        "norad_id": 34478,
        "name": "COSMOS 2251 DEB",
        "group": "cosmos-2251-debris",
        "lat": -60.892860568336864,
        "lon": -155.49714007979065,
        "alt_km": 527.3916795715704,
        "timestamp": "2025-12-19T04:59:48.701287+00:00",
        "meta_object_name": "COSMOS 2251 DEB",
        "meta_object_id": "1993-036TX",
        "meta_epoch": "2025-12-18T18:36:43.446240",
        "meta_mean_motion": 15.0848037,
        "meta_eccentricity": 0.0034317,
        "meta_inclination": 74.041,
        "meta_ra_of_asc_node": 354.4631,
        "meta_arg_of_pericenter": 214.348,
        "meta_mean_anomaly": 201.9251,
        "meta_ephemeris_type": 0,
        "meta_classification_type": "U",
        "meta_norad_cat_id": 34478,
        "meta_element_set_no": 999,
        "meta_rev_at_epoch": 89064,
        "meta_bstar": 0.0022336036,
        "meta_mean_motion_dot": 0.00035434,
        "meta_mean_motion_ddot": 0,
        "tle_line1": "1 34478U 93036TX  25352.77550285  .00035434  00000+0  22336-2 0  9999",
        "tle_line2": "2 34478  74.0410 354.4631 0034317 214.3480 201.9251 15.08480370890643"
      },
      "geometry": {
        "type": "Point",
        "coordinates": [
          -155.49714007979065,
          -60.892860568336864
        ]
      }
    }
  ]
}